{
    "type": "FeatureCollection",
    "features": [
        {
            "type": "Feature",
            "properties": {
                "name": "E",
                "pointStyle": {
                    "type": "diamond",
                    "color": [
                        152,
                        152,
                        152
                    ],
                    "size": "small",
                    "opacity": 1
                }
            },
            "geometry": {
                "type": "MultiPoint",
                "coordinates": [
                    [
                        -1.44916666666667,
                        47.0963888888889
                    ]
                ]
            }
        },
        {
            "type": "Feature",
            "properties": {
                "name": "E1",
                "pointStyle": {
                    "type": "diamond",
                    "color": [
                        152,
                        152,
                        152
                    ],
                    "size": "small",
                    "opacity": 1
                }
            },
            "geometry": {
                "type": "MultiPoint",
                "coordinates": [
                    [
                        -1.02111111111111,
                        47.3722222222222
                    ]
                ]
            }
        },
        {
            "type": "Feature",
            "properties": {
                "name": "E2",
                "pointStyle": {
                    "type": "diamond",
                    "color": [
                        152,
                        152,
                        152
                    ],
                    "size": "small",
                    "opacity": 1
                }
            },
            "geometry": {
                "type": "MultiPoint",
                "coordinates": [
                    [
                        -1.26888888888889,
                        47.0838888888889
                    ]
                ]
            }
        },
        {
            "type": "Feature",
            "properties": {
                "name": "E3",
                "pointStyle": {
                    "type": "diamond",
                    "color": [
                        152,
                        152,
                        152
                    ],
                    "size": "small",
                    "opacity": 1
                }
            },
            "geometry": {
                "type": "MultiPoint",
                "coordinates": [
                    [
                        -1.41722222222222,
                        46.8380555555556
                    ]
                ]
            }
        },
        {
            "type": "Feature",
            "properties": {
                "name": "NE",
                "pointStyle": {
                    "type": "diamond",
                    "color": [
                        152,
                        152,
                        152
                    ],
                    "size": "small",
                    "opacity": 1
                }
            },
            "geometry": {
                "type": "MultiPoint",
                "coordinates": [
                    [
                        -1.39055555555556,
                        47.1522222222222
                    ]
                ]
            }
        },
        {
            "type": "Feature",
            "properties": {
                "name": "NW",
                "pointStyle": {
                    "type": "diamond",
                    "color": [
                        152,
                        152,
                        152
                    ],
                    "size": "small",
                    "opacity": 1
                }
            },
            "geometry": {
                "type": "MultiPoint",
                "coordinates": [
                    [
                        -1.68527777777778,
                        47.2572222222222
                    ]
                ]
            }
        },
        {
            "type": "Feature",
            "properties": {
                "name": "W",
                "pointStyle": {
                    "type": "diamond",
                    "color": [
                        152,
                        152,
                        152
                    ],
                    "size": "small",
                    "opacity": 1
                }
            },
            "geometry": {
                "type": "MultiPoint",
                "coordinates": [
                    [
                        -1.78638888888889,
                        47.2072222222222
                    ]
                ]
            }
        },
        {
            "type": "Feature",
            "properties": {
                "name": "W1",
                "pointStyle": {
                    "type": "diamond",
                    "color": [
                        152,
                        152,
                        152
                    ],
                    "size": "small",
                    "opacity": 1
                }
            },
            "geometry": {
                "type": "MultiPoint",
                "coordinates": [
                    [
                        -1.5,
                        47.4405555555556
                    ]
                ]
            }
        },
        {
            "type": "Feature",
            "properties": {
                "name": "W2",
                "pointStyle": {
                    "type": "diamond",
                    "color": [
                        152,
                        152,
                        152
                    ],
                    "size": "small",
                    "opacity": 1
                }
            },
            "geometry": {
                "type": "MultiPoint",
                "coordinates": [
                    [
                        -1.87805555555556,
                        47.2916666666667
                    ]
                ]
            }
        },
        {
            "type": "Feature",
            "properties": {
                "name": "W3",
                "pointStyle": {
                    "type": "diamond",
                    "color": [
                        152,
                        152,
                        152
                    ],
                    "size": "small",
                    "opacity": 1
                }
            },
            "geometry": {
                "type": "MultiPoint",
                "coordinates": [
                    [
                        -1.9525,
                        47.0433333333333
                    ]
                ]
            }
        },
        {
            "type": "Feature",
            "properties": {
                "name": "W4",
                "pointStyle": {
                    "type": "diamond",
                    "color": [
                        152,
                        152,
                        152
                    ],
                    "size": "small",
                    "opacity": 1
                }
            },
            "geometry": {
                "type": "MultiPoint",
                "coordinates": [
                    [
                        -1.88083333333333,
                        46.8469444444444
                    ]
                ]
            }
        },
        {
            "type": "Feature",
            "properties": {
                "name": "SW",
                "pointStyle": {
                    "type": "diamond",
                    "color": [
                        152,
                        152,
                        152
                    ],
                    "size": "small",
                    "opacity": 1
                }
            },
            "geometry": {
                "type": "MultiPoint",
                "coordinates": [
                    [
                        -1.78861111111111,
                        47.1077777777778
                    ]
                ]
            }
        },
        {
            "type": "Feature",
            "properties": {
                "name": "LFRZ E",
                "pointStyle": {
                    "type": "diamond",
                    "color": [
                        152,
                        152,
                        152
                    ],
                    "size": "small",
                    "opacity": 1
                }
            },
            "geometry": {
                "type": "MultiPoint",
                "coordinates": [
                    [
                        -2.02833333333333,
                        47.2816666666667
                    ]
                ]
            }
        },
        {
            "type": "Feature",
            "properties": {
                "name": "LFRZ N",
                "pointStyle": {
                    "type": "diamond",
                    "color": [
                        152,
                        152,
                        152
                    ],
                    "size": "small",
                    "opacity": 1
                }
            },
            "geometry": {
                "type": "MultiPoint",
                "coordinates": [
                    [
                        -2.09027777777778,
                        47.4463888888889
                    ]
                ]
            }
        },
        {
            "type": "Feature",
            "properties": {
                "name": "LFRZ NW",
                "pointStyle": {
                    "type": "diamond",
                    "color": [
                        152,
                        152,
                        152
                    ],
                    "size": "small",
                    "opacity": 1
                }
            },
            "geometry": {
                "type": "MultiPoint",
                "coordinates": [
                    [
                        -2.31694444444444,
                        47.4497222222222
                    ]
                ]
            }
        },
        {
            "type": "Feature",
            "properties": {
                "name": "LFRZ W",
                "pointStyle": {
                    "type": "diamond",
                    "color": [
                        152,
                        152,
                        152
                    ],
                    "size": "small",
                    "opacity": 1
                }
            },
            "geometry": {
                "type": "MultiPoint",
                "coordinates": [
                    [
                        -2.29861111111111,
                        47.2341666666667
                    ]
                ]
            }
        },
        {
            "type": "Feature",
            "properties": {
                "name": "LFRZ W1",
                "pointStyle": {
                    "type": "diamond",
                    "color": [
                        152,
                        152,
                        152
                    ],
                    "size": "small",
                    "opacity": 1
                }
            },
            "geometry": {
                "type": "MultiPoint",
                "coordinates": [
                    [
                        -2.25555555555556,
                        47.2786111111111
                    ]
                ]
            }
        }
    ]
}